     3.03           N: GNSS NAV DATA    M: Mixed            RINEX VERSION / TYPE
GNSS-SDRLIB v1.1                        20230702 153800 UTC PGM / RUN BY / DATE 
                                                            END OF HEADER       
I05 2019 05 08 04 00 00 -.362409278750D-03  .586624082644D-10  .000000000000D+00
      .200000000000D+01  .132500000000D+04  .348014496201D-08  .198469691114D+01
      .457838177681D-05  .194050034042D-02  .206716358662D-04  .649343847656D+04
      .273600000000D+06  .130385160446D-06 -.208765314738D+01  .327825546265D-06
      .509159149002D+00 -.551562500000D+04 -.312638307907D+01 -.311298681125D-08
      .113219001740D-08  .000000000000D+00  .205200000000D+04  .000000000000D+00
      .200000000000D+01  .000000000000D+00 -.465661287308D-09  .000000000000D+00
      .275160000000D+06  .000000000000D+00
